{"fetched_at":"2026-03-29T16:36:15Z","count":15609,"tles":[{"name":"ONEWEB-0053","line1":"1 45157U 20008AC  26087.87248592  .00000242  00000+0  65618-3 0  9996","line2":"2 45157  87.8806  52.2692 0001431  90.3408 269.7883 13.10376885297395","category":"Other"}]}