{
  "norad_id": 45157,
  "name": "ONEWEB-0053",
  "history": [
    {
      "epoch": "2026-03-28T20:56:22.783488",
      "apogee_km": 1222.788958734085,
      "perigee_km": 1220.6138849777499,
      "latitude_deg": 63.04901584459747,
      "longitude_deg": -140.54135167994536,
      "semi_major_axis_km": 7599.838421855917,
      "eccentricity": 0.0001431,
      "inclination_deg": 87.8806,
      "raan_deg": 52.2692,
      "arg_perigee_deg": 90.3408,
      "mean_anomaly_deg": 269.7883,
      "mean_motion_rev_day": 13.10376885
    }
  ]
}